[{"OBJECT_NAME":"TIANHUI 4A","OBJECT_ID":"2021-134A","EPOCH":"2026-03-09T23:41:19.127616","MEAN_MOTION":15.45144231,"ECCENTRICITY":0.0011811,"INCLINATION":88.9797,"RA_OF_ASC_NODE":336.8124,"ARG_OF_PERICENTER":97.7034,"MEAN_ANOMALY":262.5567,"EPHEMERIS_TYPE":0,"CLASSIFICATION_TYPE":"U","NORAD_CAT_ID":50572,"ELEMENT_SET_NO":999,"REV_AT_EPOCH":23454,"BSTAR":0.00022158295,"MEAN_MOTION_DOT":0.0001055,"MEAN_MOTION_DDOT":0},{"OBJECT_NAME":"JACKAL X-1L-001","OBJECT_ID":"2024-043AF","EPOCH":"2026-03-09T21:53:51.909504","MEAN_MOTION":15.41200084,"ECCENTRICITY":0.00073606,"INCLINATION":97.5425,"RA_OF_ASC_NODE":210.2937,"ARG_OF_PERICENTER":209.2709,"MEAN_ANOMALY":150.8126,"EPHEMERIS_TYPE":0,"CLASSIFICATION_TYPE":"U","NORAD_CAT_ID":59127,"ELEMENT_SET_NO":999,"REV_AT_EPOCH":11224,"BSTAR":0.00050692817,"MEAN_MOTION_DOT":0.00021003,"MEAN_MOTION_DDOT":0}]
